start=new Date('2022-11-26T00:00:00.000Z').valueOf();
sats=[{"MEAN_ELEMENT_THEORY":"SGP4","FILE":"3670141","BSTAR":"-0.00037266000000","RA_OF_ASC_NODE":"40.0370","COUNTRY_CODE":"US","TLE_LINE1":"1 49145U 21082R   22329.70909879 -.00004541  00000-0 -37266-3 0  9996","TLE_LINE2":"2 49145  70.0013  40.0370 0003254 270.4223  89.6563 14.98369441 67216","ELEMENT_SET_NO":"999","APOAPSIS":"574.197","SEMIMAJOR_AXIS":"6950.071","PERIAPSIS":"569.674","ECCENTRICITY":"0.00032540","DECAY_DATE":null,"GP_ID":"218821210","MEAN_MOTION":"14.98369441","MEAN_ANOMALY":"89.6563","NORAD_CAT_ID":"49145","INCLINATION":"70.0013","REF_FRAME":"TEME","MEAN_MOTION_DDOT":"0.0000000000000","OBJECT_NAME":"STARLINK-3119","PERIOD":"96.104","LAUNCH_DATE":"2021-09-14","MEAN_MOTION_DOT":"-0.00004541","TIME_SYSTEM":"UTC","REV_AT_EPOCH":"6721","RCS_SIZE":"LARGE","CENTER_NAME":"EARTH","OBJECT_TYPE":"PAYLOAD","EPOCH":"2022-11-25T17:01:06.135456","SITE":"AFWTR","EPHEMERIS_TYPE":"0","OBJECT_ID":"2021-082R","ARG_OF_PERICENTER":"270.4223","CLASSIFICATION_TYPE":"U"},{"MEAN_ELEMENT_THEORY":"SGP4","FILE":"3670141","BSTAR":"0.00018657000000","RA_OF_ASC_NODE":"59.9935","COUNTRY_CODE":"US","ELEMENT_SET_NO":"999","TLE_LINE2":"2 49146  70.0006  59.9935 0003145 260.4874  99.5930 14.98340227 67887","TLE_LINE1":"1 49146U 21082S   22329.72685931  .00002134  00000-0  18657-3 0  9996","APOAPSIS":"574.212","SEMIMAJOR_AXIS":"6950.161","PERIAPSIS":"569.840","ECCENTRICITY":"0.00031450","GP_ID":"218821220","DECAY_DATE":null,"MEAN_MOTION":"14.98340227","MEAN_ANOMALY":"99.5930","NORAD_CAT_ID":"49146","INCLINATION":"70.0006","REF_FRAME":"TEME","MEAN_MOTION_DDOT":"0.0000000000000","OBJECT_NAME":"STARLINK-3116","PERIOD":"96.106","LAUNCH_DATE":"2021-09-14","MEAN_MOTION_DOT":"0.00002134","TIME_SYSTEM":"UTC","REV_AT_EPOCH":"6788","RCS_SIZE":"LARGE","CENTER_NAME":"EARTH","EPOCH":"2022-11-25T17:26:40.644384","OBJECT_TYPE":"PAYLOAD","OBJECT_ID":"2021-082S","SITE":"AFWTR","EPHEMERIS_TYPE":"0","CLASSIFICATION_TYPE":"U","ARG_OF_PERICENTER":"260.4874"},{"APOAPSIS":"574.258","SEMIMAJOR_AXIS":"6950.182","COUNTRY_CODE":"US","ELEMENT_SET_NO":"999","TLE_LINE2":"2 49147  70.0012  40.3528 0003181 270.7766  89.3029 14.98333533 67205","TLE_LINE1":"1 49147U 21082T   22329.58512651  .00000444  00000-0  44960-4 0  9998","MEAN_ELEMENT_THEORY":"SGP4","FILE":"3670141","BSTAR":"0.00004496000000","RA_OF_ASC_NODE":"40.3528","MEAN_ANOMALY":"89.3029","NORAD_CAT_ID":"49147","INCLINATION":"70.0012","MEAN_MOTION":"14.98333533","GP_ID":"218821470","DECAY_DATE":null,"PERIAPSIS":"569.836","ECCENTRICITY":"0.00031810","RCS_SIZE":"LARGE","TIME_SYSTEM":"UTC","REV_AT_EPOCH":"6720","PERIOD":"96.107","LAUNCH_DATE":"2021-09-14","MEAN_MOTION_DOT":"0.00000444","REF_FRAME":"TEME","OBJECT_NAME":"STARLINK-3071","MEAN_MOTION_DDOT":"0.0000000000000","OBJECT_ID":"2021-082T","SITE":"AFWTR","EPHEMERIS_TYPE":"0","CLASSIFICATION_TYPE":"U","ARG_OF_PERICENTER":"270.7766","EPOCH":"2022-11-25T14:02:34.930464","OBJECT_TYPE":"PAYLOAD","CENTER_NAME":"EARTH"},{"SITE":"AFWTR","EPHEMERIS_TYPE":"0","OBJECT_ID":"2021-082U","ARG_OF_PERICENTER":"264.1675","CLASSIFICATION_TYPE":"U","OBJECT_TYPE":"PAYLOAD","EPOCH":"2022-11-25T15:43:40.790208","CENTER_NAME":"EARTH","RCS_SIZE":"LARGE","TIME_SYSTEM":"UTC","REV_AT_EPOCH":"6671","PERIOD":"96.107","LAUNCH_DATE":"2021-09-14","MEAN_MOTION_DOT":"0.00000556","REF_FRAME":"TEME","MEAN_MOTION_DDOT":"0.0000000000000","OBJECT_NAME":"STARLINK-3048","MEAN_ANOMALY":"95.9131","NORAD_CAT_ID":"49148","INCLINATION":"69.9999","MEAN_MOTION":"14.98326214","DECAY_DATE":null,"GP_ID":"218819961","PERIAPSIS":"569.919","ECCENTRICITY":"0.00030950","APOAPSIS":"574.221","SEMIMAJOR_AXIS":"6950.205","COUNTRY_CODE":"US","ELEMENT_SET_NO":"999","TLE_LINE2":"2 49148  69.9999  60.1586 0003095 264.1675  95.9131 14.98326214 66711","TLE_LINE1":"1 49148U 21082U   22329.65533322  .00000556  00000-0  54385-4 0  9991","MEAN_ELEMENT_THEORY":"SGP4","FILE":"3670141","BSTAR":"0.00005438500000","RA_OF_ASC_NODE":"60.1586"},{"CENTER_NAME":"EARTH","OBJECT_TYPE":"PAYLOAD","EPOCH":"2022-11-25T19:42:05.763456","ARG_OF_PERICENTER":"259.2746","CLASSIFICATION_TYPE":"U","SITE":"AFWTR","EPHEMERIS_TYPE":"0","OBJECT_ID":"2021-082V","MEAN_MOTION_DDOT":"0.0000000000000","OBJECT_NAME":"STARLINK-3053","REF_FRAME":"TEME","LAUNCH_DATE":"2021-09-14","MEAN_MOTION_DOT":"0.00002132","PERIOD":"96.106","REV_AT_EPOCH":"6744","TIME_SYSTEM":"UTC","RCS_SIZE":"LARGE","ECCENTRICITY":"0.00032760","PERIAPSIS":"569.746","DECAY_DATE":null,"GP_ID":"218820711","MEAN_MOTION":"14.98341225","NORAD_CAT_ID":"49149","INCLINATION":"70.0004","MEAN_ANOMALY":"100.8044","RA_OF_ASC_NODE":"79.7547","BSTAR":"0.00018634000000","FILE":"3670141","MEAN_ELEMENT_THEORY":"SGP4","ELEMENT_SET_NO":"999","TLE_LINE2":"2 49149  70.0004  79.7547 0003276 259.2746 100.8044 14.98341225 67449","TLE_LINE1":"1 49149U 21082V   22329.82090004  .00002132  00000-0  18634-3 0  9994","COUNTRY_CODE":"US","SEMIMAJOR_AXIS":"6950.158","APOAPSIS":"574.300"},{"MEAN_MOTION":"14.98335110","INCLINATION":"70.0000","NORAD_CAT_ID":"49150","MEAN_ANOMALY":"104.0298","ECCENTRICITY":"0.00034470","PERIAPSIS":"569.646","GP_ID":"218820721","DECAY_DATE":null,"SEMIMAJOR_AXIS":"6950.177","APOAPSIS":"574.438","BSTAR":"0.00010194000000","RA_OF_ASC_NODE":"79.9334","FILE":"3670141","MEAN_ELEMENT_THEORY":"SGP4","TLE_LINE2":"2 49150  70.0000  79.9334 0003447 256.0478 104.0298 14.98335110 67432","TLE_LINE1":"1 49150U 21082W   22329.74937589  .00001124  00000-0  10194-3 0  9998","ELEMENT_SET_NO":"999","COUNTRY_CODE":"US","EPOCH":"2022-11-25T17:59:06.076896","OBJECT_TYPE":"PAYLOAD","CLASSIFICATION_TYPE":"U","ARG_OF_PERICENTER":"256.0478","OBJECT_ID":"2021-082W","SITE":"AFWTR","EPHEMERIS_TYPE":"0","CENTER_NAME":"EARTH","REV_AT_EPOCH":"6743","TIME_SYSTEM":"UTC","RCS_SIZE":"LARGE","OBJECT_NAME":"STARLINK-3104","MEAN_MOTION_DDOT":"0.0000000000000","REF_FRAME":"TEME","MEAN_MOTION_DOT":"0.00001124","LAUNCH_DATE":"2021-09-14","PERIOD":"96.107"},{"PERIAPSIS":"569.865","ECCENTRICITY":"0.00031330","DECAY_DATE":null,"GP_ID":"218820971","MEAN_MOTION":"14.98335092","MEAN_ANOMALY":"107.4521","INCLINATION":"70.0002","NORAD_CAT_ID":"49151","FILE":"3670141","MEAN_ELEMENT_THEORY":"SGP4","RA_OF_ASC_NODE":"40.2207","BSTAR":"0.00016167000000","COUNTRY_CODE":"US","TLE_LINE1":"1 49151U 21082X   22329.63281471  .00001837  00000-0  16167-3 0  9996","TLE_LINE2":"2 49151  70.0002  40.2207 0003133 252.6295 107.4521 14.98335092 68409","ELEMENT_SET_NO":"999","APOAPSIS":"574.220","SEMIMAJOR_AXIS":"6950.177","CENTER_NAME":"EARTH","OBJECT_TYPE":"PAYLOAD","EPOCH":"2022-11-25T15:11:15.190944","SITE":"AFWTR","EPHEMERIS_TYPE":"0","OBJECT_ID":"2021-082X","ARG_OF_PERICENTER":"252.6295","CLASSIFICATION_TYPE":"U","REF_FRAME":"TEME","OBJECT_NAME":"STARLINK-3102","MEAN_MOTION_DDOT":"0.0000000000000","PERIOD":"96.107","MEAN_MOTION_DOT":"0.00001837","LAUNCH_DATE":"2021-09-14","TIME_SYSTEM":"UTC","REV_AT_EPOCH":"6840","RCS_SIZE":"LARGE"},{"REV_AT_EPOCH":"6833","TIME_SYSTEM":"UTC","RCS_SIZE":"LARGE","MEAN_MOTION_DDOT":"0.0000000000000","OBJECT_NAME":"STARLINK-3081","REF_FRAME":"TEME","MEAN_MOTION_DOT":"0.00000848","LAUNCH_DATE":"2021-09-14","PERIOD":"96.107","OBJECT_TYPE":"PAYLOAD","EPOCH":"2022-11-25T16:13:03.599904","ARG_OF_PERICENTER":"264.5430","CLASSIFICATION_TYPE":"U","SITE":"AFWTR","EPHEMERIS_TYPE":"0","OBJECT_ID":"2021-082Y","CENTER_NAME":"EARTH","SEMIMAJOR_AXIS":"6950.193","APOAPSIS":"574.442","RA_OF_ASC_NODE":"40.1071","BSTAR":"0.00007889800000","FILE":"3670141","MEAN_ELEMENT_THEORY":"SGP4","ELEMENT_SET_NO":"999","TLE_LINE2":"2 49152  69.9997  40.1071 0003430 264.5430  95.5338 14.98329943 68334","TLE_LINE1":"1 49152U 21082Y   22329.67573611  .00000848  00000-0  78898-4 0  9992","COUNTRY_CODE":"US","MEAN_MOTION":"14.98329943","NORAD_CAT_ID":"49152","INCLINATION":"69.9997","MEAN_ANOMALY":"95.5338","ECCENTRICITY":"0.00034300","PERIAPSIS":"569.674","DECAY_DATE":null,"GP_ID":"218820461"},{"MEAN_MOTION":"14.98317459","MEAN_ANOMALY":"96.8284","NORAD_CAT_ID":"49153","INCLINATION":"70.0004","PERIAPSIS":"570.059","ECCENTRICITY":"0.00029320","GP_ID":"218821211","DECAY_DATE":null,"APOAPSIS":"574.134","SEMIMAJOR_AXIS":"6950.232","FILE":"3670141","MEAN_ELEMENT_THEORY":"SGP4","RA_OF_ASC_NODE":"40.0805","BSTAR":"-0.00002158600000","COUNTRY_CODE":"US","TLE_LINE1":"1 49153U 21082Z   22329.69005463 -.00000350  00000-0 -21586-4 0  9992","TLE_LINE2":"2 49153  70.0004  40.0805 0002932 263.2542  96.8284 14.98317459 68420","ELEMENT_SET_NO":"999","EPOCH":"2022-11-25T16:33:40.720032","OBJECT_TYPE":"PAYLOAD","OBJECT_ID":"2021-082Z","SITE":"AFWTR","EPHEMERIS_TYPE":"0","CLASSIFICATION_TYPE":"U","ARG_OF_PERICENTER":"263.2542","CENTER_NAME":"EARTH","TIME_SYSTEM":"UTC","REV_AT_EPOCH":"6842","RCS_SIZE":"LARGE","REF_FRAME":"TEME","MEAN_MOTION_DDOT":"0.0000000000000","OBJECT_NAME":"STARLINK-3072","PERIOD":"96.108","MEAN_MOTION_DOT":"-0.00000350","LAUNCH_DATE":"2021-09-14"},{"MEAN_MOTION":"14.98340289","MEAN_ANOMALY":"125.4446","NORAD_CAT_ID":"49154","INCLINATION":"70.0005","PERIAPSIS":"569.459","ECCENTRICITY":"0.00036940","DECAY_DATE":null,"GP_ID":"218821221","APOAPSIS":"574.593","SEMIMAJOR_AXIS":"6950.161","FILE":"3670141","MEAN_ELEMENT_THEORY":"SGP4","RA_OF_ASC_NODE":"59.8345","BSTAR":"0.00018918000000","COUNTRY_CODE":"US","ELEMENT_SET_NO":"999","TLE_LINE2":"2 49154  70.0005  59.8345 0003694 234.6368 125.4446 14.98340289 67811","TLE_LINE1":"1 49154U 21082AA  22329.78408036  .00002166  00000-0  18918-3 0  9995","OBJECT_TYPE":"PAYLOAD","EPOCH":"2022-11-25T18:49:04.543104","SITE":"AFWTR","EPHEMERIS_TYPE":"0","OBJECT_ID":"2021-082AA","ARG_OF_PERICENTER":"234.6368","CLASSIFICATION_TYPE":"U","CENTER_NAME":"EARTH","TIME_SYSTEM":"UTC","REV_AT_EPOCH":"6781","RCS_SIZE":"LARGE","REF_FRAME":"TEME","MEAN_MOTION_DDOT":"0.0000000000000","OBJECT_NAME":"STARLINK-3068","PERIOD":"96.106","LAUNCH_DATE":"2021-09-14","MEAN_MOTION_DOT":"0.00002166"}];
